APRIZESAT 2             
1 28366U 04025A   26167.72807596  .00000120  00000+0  50667-4 0  9992
2 28366  98.1013 333.7344 0104337 251.2505 107.7339 14.38035607151570
SAUDICOMSAT 1           
1 28369U 04025D   26166.98505362  .00000323  00000+0  85012-4 0  9995
2 28369  98.5771 177.0841 0032731  29.2539 331.0481 14.55472972163951
SAUDICOMSAT 2           
1 28370U 04025E   26167.57305977  .00000195  00000+0  62142-4 0  9999
2 28370  98.6641 179.8019 0054164 261.3957  98.1097 14.49980928160010
APRIZESAT 1             
1 28372U 04025G   26167.74333027  .00000181  00000+0  56642-4 0  9990
2 28372  98.6303 178.4568 0045085 155.1872 205.1504 14.51776781161847
NANOSAT-1               
1 28493U 04049B   26167.62828528  .00000838  00000+0  11764-3 0  9996
2 28493  98.2276 304.2756 0002853 305.2196  54.8748 14.80158628155362
SAUDICOMSAT 7           
1 31119U 07012C   26167.49853294  .00000349  00000+0  71698-4 0  9991
2 31119  98.3778 141.6161 0055238 197.3712 162.5603 14.66109673 22338
SAUDICOMSAT 6           
1 31121U 07012E   26167.47456013  .00000479  00000+0  10131-3 0  9998
2 31121  98.4098 134.9776 0071098 330.0150  29.6987 14.62557581 20087
SAUDICOMSAT 5           
1 31124U 07012H   26167.88186551  .00000514  00000+0  97052-4 0  9991
2 31124  98.3489 142.7545 0048446 125.6383 234.9347 14.68156095 23558
SAUDICOMSAT 3           
1 31125U 07012J   26167.16261770  .00000737  00000+0  12815-3 0  9990
2 31125  98.3144 142.5690 0040284  56.3821 304.1219 14.70704352 24675
SAUDICOMSAT 4           
1 31127U 07012L   26167.47142116  .00000360  00000+0  76054-4 0  9996
2 31127  98.3983 140.0273 0062059 260.5042  98.9142 14.64511620 21189
APRIZESAT 4             
1 35684U 09041D   26167.71759211  .00000555  00000+0  72963-4 0  9990
2 35684  98.1413 243.0288 0042436 324.6081  35.2317 14.83878811911296
APRIZESAT 3             
1 35686U 09041F   26167.43022316  .00001528  00000+0  13601-3 0  9994
2 35686  98.2059 320.6177 0062776  70.1926 290.6047 14.96239329916262
S-NET D                 
1 43186U 18014G   26167.80212424  .00004256  00000+0  22071-3 0  9992
2 43186  97.5365  72.5955 0008988  31.7411 328.4362 15.16670775458709
S-NET B                 
1 43187U 18014H   26167.68161610  .00004473  00000+0  23196-3 0  9999
2 43187  97.5370  72.4624 0009465  26.9025 333.2696 15.16639326458684
S-NET A                 
1 43188U 18014J   26167.80100387  .00004229  00000+0  21925-3 0  9995
2 43188  97.5381  72.7895 0009365  27.3118 332.8605 15.16678733458700
S-NET C                 
1 43189U 18014K   26167.81744429  .00004506  00000+0  23361-3 0  9992
2 43189  97.5398  72.8806 0010497  18.9293 341.2328 15.16632493457258
SALSAT                  
1 46495U 20068K   26167.75305926  .00006424  00000+0  22536-3 0  9999
2 46495  97.8846 170.7912 0008036 309.8779  50.1753 15.29794360315296
OOV-CUBE (TUBSAT-30)    
1 60240U 24128F   26167.65623862  .00001551  00000+0  12883-3 0  9995
2 60240  61.9941 227.4248 0044650 133.6062 226.8748 15.02772513106033
LPNTSAT-001 (IOD-1)     
1 68408U 26065A   26167.61550323  .00002412  00000+0  11970-3 0  9991
2 68408  97.4015  48.1375 0016718  12.8007 347.3649 15.18535599 12171
